USA 167                 
1 27691U 03008A   26197.10328498 -.00000010  00000+0  00000+0 0  9996
2 27691  11.0172  43.1456 0003399 310.6603 215.5557  1.00270233  7066
USA 169 (MILSTAR-2 4)   
1 27711U 03012A   26196.87226808 -.00000211  00000+0  00000+0 0  9992
2 27711  12.3919  29.6045 0099373  10.2569   0.0182  1.00273185 33245
ASIASAT 4               
1 27718U 03014A   26196.69141881 -.00000235  00000+0  00000+0 0  9994
2 27718   4.7742  75.3868 0002865  38.2075 216.3940  1.00272567 45581
HELLAS-SAT 2            
1 27811U 03020A   26196.91152890 -.00000098  00000+0  00000+0 0  9999
2 27811   7.4240  67.5370 0003663  81.6353 102.6946  1.00271470 43131
THURAYA-2               
1 27825U 03026A   26197.13607105  .00000112  00000+0  00000+0 0  9995
2 27825   8.8822  31.8386 0002555  26.2061 328.9204  1.00271544 84630
OPTUS C1                
1 27831U 03028B   26196.94428117 -.00000166  00000+0  00000+0 0  9996
2 27831   6.9596  69.0576 0005238  42.0570 318.2956  1.00269106 53341
USA 170                 
1 27875U 03040A   26196.80114166  .00000112  00000+0  00000+0 0  9999
2 27875  10.5594  47.6726 0001774  75.8802 122.7526  1.00275116 33280
GALAXY 13 (HORIZONS-1)  
1 27954U 03044A   26197.09767612  .00000121  00000+0  00000+0 0  9993
2 27954   1.4913  83.4927 0002130  31.5265  64.0606  1.00271686 46865
YAMAL 202               
1 28089U 03053A   26196.62671830 -.00000094  00000+0  00000+0 0  9997
2 28089   6.4119  70.5910 0003210  42.7658 209.2717  1.00271910 82986
UFO 11 (USA 174)        
1 28117U 03057A   26197.03288987 -.00000117  00000+0  00000+0 0  9992
2 28117   8.9599  33.6804 0002696  96.8891 250.7089  1.00270218 82731
USA 176 (DSP 22)        
1 28158U 04004A   26196.90364221 -.00000310  00000+0  00000+0 0  9996
2 28158  12.1007  25.8544 0001159 295.2731 248.4677  1.00265543 33224
ABS-4 (MOBISAT-1)       
1 28184U 04007A   26197.13945109  .00000025  00000+0  00000+0 0  9996
2 28184   6.1118  71.6518 0004584  45.6766 287.8090  1.00273646 52623
INTELSAT 10-02          
1 28358U 04022A   26197.07891987 -.00000021  00000+0  00000+0 0  9990
2 28358   0.0545 251.7154 0000304 338.2041  91.4026  1.00272671 80843
ANIK F2                 
1 28378U 04027A   26196.89150816 -.00000062  00000+0  00000+0 0  9990
2 28378   3.3598  79.0636 0003608  32.3917  32.0899  1.00271581 41552
AMC-15                  
1 28446U 04041A   26197.10657830 -.00000099  00000+0  00000+0 0  9995
2 28446   0.0376 296.4809 0002166 173.9306 116.8465  1.00271005 79591
NSS-10                  
1 28526U 05003A   26197.09558764 -.00000266  00000+0  00000+0 0  9993
2 28526   6.5201  70.0983 0002675  43.3436 177.4358  1.00269827 53445
INMARSAT 4-F1           
1 28628U 05009A   26196.87746809  .00000020  00000+0  00000+0 0  9993
2 28628   5.2068  42.7892 0002553  72.6254 312.2829  1.00271112 77963
DIRECTV 8               
1 28659U 05019A   26196.88994816  .00000000  00000+0  00000+0 0  9990
2 28659   0.0200  58.3119 0003196  72.1395   4.6229  1.00270575 77360
GALAXY 28 (G-28)        
1 28702U 05022A   26197.12194433 -.00000213  00000+0  00000+0 0  9995
2 28702   3.3705  78.5758 0002531  28.7627 203.4227  1.00271773 52265
THAICOM 4               
1 28786U 05028A   26197.07058691 -.00000373  00000+0  00000+0 0  9999
2 28786   0.3180  85.4926 0001467   7.2730 346.0420  1.00271605 52532
ANIK F1R                
1 28868U 05036A   26197.07219647 -.00000088  00000+0  00000+0 0  9992
2 28868   4.3847  76.2184 0003865  18.4657 117.9022  1.00271466 46741
SYRACUSE 3A             
1 28885U 05041B   26196.85144248  .00000116  00000+0  00000+0 0  9997
2 28885   4.7125  75.4855 0002703  36.1143 175.2660  1.00274422 76031
INMARSAT 4-F2           
1 28899U 05044A   26197.01314196 -.00000273  00000+0  00000+0 0  9990
2 28899   5.1323  43.6627 0002753  61.9367 336.4730  1.00270665 75813
METEOSAT-9 (MSG-2)      
1 28912U 05049B   26196.70868995  .00000110  00000+0  00000+0 0  9996
2 28912   9.4242  53.8824 0002207 356.2900 184.1676  1.00272260  7281
EUTELSAT 174A           
1 28924U 05052A   26196.80534251 -.00000005  00000+0  00000+0 0  9993
2 28924   4.2892  76.1714 0005847  39.8364 281.5035  1.00271267 52619
ECHOSTAR 10             
1 28935U 06003A   26197.10553830 -.00000066  00000+0  00000+0 0  9997
2 28935   0.0531 283.4491 0001136 188.9671 109.3253  1.00270544 74759
SPAINSAT                
1 28945U 06007A   26196.26976637 -.00000227  00000+0  00000+0 0  9991
2 28945   0.6340  86.0527 0004655  27.9824 245.9942  1.00269415 74502
JCSAT-5A                
1 29045U 06010A   26197.05947428 -.00000339  00000+0  00000+0 0  9995
2 29045   1.1821  83.8896 0001707  21.3762 342.0769  1.00272253 74063
ASTRA 1KR               
1 29055U 06012A   26197.13113103  .00000108  00000+0  00000+0 0  9995
2 29055   0.5467  83.1710 0003334  24.1282 252.8616  1.00270895 45985
GALAXY 16 (G-16)        
1 29236U 06023A   26197.10770499 -.00000137  00000+0  00000+0 0  9995
2 29236   0.0253 159.3024 0002531 313.8281 120.5748  1.00271511 73268
EUTELSAT 33F            
1 29270U 06032A   26197.13390439  .00000144  00000+0  00000+0 0  9995
2 29270   1.7345  81.9172 0003445  29.7824 263.5355  1.00272308 47595
JCSAT-3A                
1 29272U 06033A   26197.06503198 -.00000355  00000+0  00000+0 0  9993
2 29272   0.0464 259.0944 0002093 221.7480 324.4700  1.00274776 48038
