OBJECT_NAME,OBJECT_ID,EPOCH,MEAN_MOTION,ECCENTRICITY,INCLINATION,RA_OF_ASC_NODE,ARG_OF_PERICENTER,MEAN_ANOMALY,EPHEMERIS_TYPE,CLASSIFICATION_TYPE,NORAD_CAT_ID,ELEMENT_SET_NO,REV_AT_EPOCH,BSTAR,MEAN_MOTION_DOT,MEAN_MOTION_DDOT
USA 167,2003-008A,2026-07-16T02:28:43.822272,1.00270233,.0003399,11.0172,43.1456,310.6603,215.5557,0,U,27691,999,706,0,-.1E-6,0
USA 169 (MILSTAR-2 4),2003-012A,2026-07-15T20:56:03.962112,1.00273185,.0099373,12.3919,29.6045,10.2569,0.0182,0,U,27711,999,3324,0,-.211E-5,0
ASIASAT 4,2003-014A,2026-07-15T16:35:38.585184,1.00272567,.00028658,4.7742,75.3868,38.2075,216.3940,0,U,27718,999,4558,0,-.235E-5,0
HELLAS-SAT 2,2003-020A,2026-07-15T21:52:36.096960,1.00271470,.0003663,7.4240,67.5370,81.6353,102.6946,0,U,27811,999,4313,0,-.98E-6,0
THURAYA-2,2003-026A,2026-07-16T03:15:56.538720,1.00271544,.0002555,8.8822,31.8386,26.2061,328.9204,0,U,27825,999,8463,0,.112E-5,0
OPTUS C1,2003-028B,2026-07-15T22:39:45.893088,1.00269106,.0005238,6.9596,69.0576,42.0570,318.2956,0,U,27831,999,5334,0,-.166E-5,0
USA 170,2003-040A,2026-07-15T19:13:38.639424,1.00275116,.0001774,10.5594,47.6726,75.8802,122.7526,0,U,27875,999,3328,0,.112E-5,0
GALAXY 13 (HORIZONS-1),2003-044A,2026-07-16T02:20:39.216768,1.00271686,.000213,1.4913,83.4927,31.5265,64.0606,0,U,27954,999,4686,0,.121E-5,0
YAMAL 202,2003-053A,2026-07-15T15:02:28.461120,1.00271910,.00032108,6.4119,70.5910,42.7658,209.2717,0,U,28089,999,8298,0,-.94E-6,0
UFO 11 (USA 174),2003-057A,2026-07-16T00:47:21.684768,1.00270218,.0002696,8.9599,33.6804,96.8891,250.7089,0,U,28117,999,8273,0,-.117E-5,0
USA 176 (DSP 22),2004-004A,2026-07-15T21:41:14.686944,1.00265543,.0001159,12.1007,25.8544,295.2731,248.4677,0,U,28158,999,3322,0,-.31E-5,0
ABS-4 (MOBISAT-1),2004-007A,2026-07-16T03:20:48.574176,1.00273646,.0004584,6.1118,71.6518,45.6766,287.8090,0,U,28184,999,5262,0,.25E-6,0
INTELSAT 10-02,2004-022A,2026-07-16T01:53:38.676768,1.00272671,.0000304,0.0545,251.7154,338.2041,91.4026,0,U,28358,999,8084,0,-.21E-6,0
ANIK F2,2004-027A,2026-07-15T21:23:46.305024,1.00271581,.0003608,3.3598,79.0636,32.3917,32.0899,0,U,28378,999,4155,0,-.62E-6,0
AMC-15,2004-041A,2026-07-16T02:33:28.365120,1.00271005,.0002166,0.0376,296.4809,173.9306,116.8465,0,U,28446,999,7959,0,-.99E-6,0
NSS-10,2005-003A,2026-07-16T02:17:38.772096,1.00269827,.0002675,6.5201,70.0983,43.3436,177.4358,0,U,28526,999,5344,0,-.266E-5,0
INMARSAT 4-F1,2005-009A,2026-07-15T21:03:33.242976,1.00271112,.0002553,5.2068,42.7892,72.6254,312.2829,0,U,28628,999,7796,0,.2E-6,0
DIRECTV 8,2005-019A,2026-07-15T21:21:31.521024,1.00270575,.0003196,0.0200,58.3119,72.1395,4.6229,0,U,28659,999,7736,0,0,0
GALAXY 28 (G-28),2005-022A,2026-07-16T02:55:35.990112,1.00271773,.0002531,3.3705,78.5758,28.7627,203.4227,0,U,28702,999,5226,0,-.213E-5,0
THAICOM 4,2005-028A,2026-07-16T01:41:38.709024,1.00271605,.0001467,0.3180,85.4926,7.2730,346.0420,0,U,28786,999,5253,0,-.373E-5,0
ANIK F1R,2005-036A,2026-07-16T01:43:57.775008,1.00271466,.0003865,4.3847,76.2184,18.4657,117.9022,0,U,28868,999,4674,0,-.88E-6,0
SYRACUSE 3A,2005-041B,2026-07-15T20:26:04.630272,1.00274422,.00027039,4.7125,75.4855,36.1143,175.2660,0,U,28885,999,7603,0,.116E-5,0
INMARSAT 4-F2,2005-044A,2026-07-16T00:18:55.465344,1.00270665,.0002753,5.1323,43.6627,61.9367,336.4730,0,U,28899,999,7581,0,-.273E-5,0
METEOSAT-9 (MSG-2),2005-049B,2026-07-15T17:00:30.811680,1.00272260,.0002207,9.4242,53.8824,356.2900,184.1676,0,U,28912,999,728,0,.11E-5,0
EUTELSAT 174A,2005-052A,2026-07-15T19:19:41.592864,1.00271267,.0005847,4.2892,76.1714,39.8364,281.5035,0,U,28924,999,5261,0,-.5E-7,0
ECHOSTAR 10,2006-003A,2026-07-16T02:31:58.509120,1.00270544,.0001136,0.0531,283.4491,188.9671,109.3253,0,U,28935,999,7475,0,-.66E-6,0
SPAINSAT,2006-007A,2026-07-15T06:28:27.814368,1.00269415,.00046551,0.6340,86.0527,27.9824,245.9942,0,U,28945,999,7450,0,-.227E-5,0
JCSAT-5A,2006-010A,2026-07-16T01:25:38.577792,1.00272253,.0001707,1.1821,83.8896,21.3762,342.0769,0,U,29045,999,7406,0,-.339E-5,0
ASTRA 1KR,2006-012A,2026-07-16T03:08:49.720992,1.00270895,.0003334,0.5467,83.1710,24.1282,252.8616,0,U,29055,999,4598,0,.108E-5,0
GALAXY 16 (G-16),2006-023A,2026-07-16T02:35:05.711136,1.00271511,.0002531,0.0253,159.3024,313.8281,120.5748,0,U,29236,999,7326,0,-.137E-5,0
EUTELSAT 33F,2006-032A,2026-07-16T03:12:49.339296,1.00272308,.0003445,1.7345,81.9172,29.7824,263.5355,0,U,29270,999,4759,0,.144E-5,0
JCSAT-3A,2006-033A,2026-07-16T01:33:38.763072,1.00274776,.0002093,0.0464,259.0944,221.7480,324.4700,0,U,29272,999,4803,0,-.355E-5,0
